CAS-2T & KS-1Q          
1 41847U 16066G   20305.57775658  .00000159  00000-0  34193-4 0  9992
2 41847  98.6375 357.3527 0365620 183.0509 176.8448 14.38104526208983
NAYIF-1 (EO-88)         
1 42017U 17008BX  20305.15956406  .00002376  00000-0  92624-4 0  9991
2 42017  97.3466  10.6681 0005825 186.5551 173.5613 15.26909596206257
ZHUHAI-1 02 (CAS-4B)    
1 42759U 17034B   20305.57675120  .00000500  00000-0  43677-4 0  9991
2 42759  43.0193 359.1020 0009674 176.1384 333.6796 15.09927199186548
ZHUHAI-1 01 (CAS-4A)    
1 42761U 17034D   20305.58039267  .00000444  00000-0  40253-4 0  9995
2 42761  43.0198 358.2912 0010130 176.9194 334.5891 15.10006148186542
MAX VALIER SAT          
1 42778U 17036P   20305.30396664  .00001428  00000-0  63811-4 0  9990
2 42778  97.2893 355.0791 0010430 262.9104  97.0947 15.22870800186408
RADFXSAT (FOX-1B)       
1 43017U 17073E   20305.57750919  .00001305  00000-0  10672-3 0  9994
2 43017  97.7152 212.5111 0255809 327.0680  31.4813 14.79105853159284
FOX-1D (AO-92)          
1 43137U 18004AC  20305.44185404  .00001606  00000-0  68439-4 0  9998
2 43137  97.4337  15.6072 0007664 303.4830  56.5674 15.24402216155751
DIWATA-2B               
1 43678U 18084H   20305.58218137  .00000500  00000-0  55424-4 0  9993
2 43678  97.8989  64.1014 0011408  86.9990 273.2516 14.91668252109315
ES'HAIL 2               
1 43700U 18090A   20305.51646630  .00000152  00000-0  00000-0 0  9991
2 43700   0.0119 221.6883 0002171  25.2400   5.0919  1.00273794  7072
FOX-1CLIFF (AO-95)      
1 43770U 18099N   20305.44312919  .00000061  00000-0  10717-4 0  9998
2 43770  97.6937  14.3666 0015968 102.2311 258.0699 14.95078516104234
ITASAT 1                
1 43786U 18099AE  20305.47667016  .00000779  00000-0  75497-4 0  9991
2 43786  97.6953  14.9162 0016722  96.5349 263.7776 14.95404406104264
JY1SAT (JO-97)          
1 43803U 18099AX  20305.47443374  .00000865  00000-0  82930-4 0  9996
2 43803  97.6913  14.7024 0016672  96.8596 263.4522 14.95598760104269
PSAT2 (NO-104)          
1 44354U 19036R   20305.42880571  .00015254  00000-0  21824-3 0  9991
2 44354  28.5308 206.0008 0354013 325.8549  31.9735 15.06058449 74311
BRICSAT2 (NO-103)       
1 44355U 19036S   20305.38080326  .00032592  00000-0  43438-3 0  9996
2 44355  28.5291 188.9356 0323276 353.5917   6.0607 15.13921929 74480
JAISAT-1                
1 44419U 19038F   20305.54083956  .00001505  00000-0  88494-4 0  9991
2 44419  97.5564 265.6814 0022218  25.6824 334.5505 15.13021640 73170
DUCHIFAT-3              
1 44854U 19089C   20305.50419664  .00000687  00000-0  61823-4 0  9992
2 44854  36.9672  14.2619 0007513  75.3629 284.7935 14.99175656 48723
RS-44 & BREEZE-KM R/B   
1 44909U 19096E   20305.39565173 -.00000003  00000-0 -49283-4 0  9995
2 44909  82.5194 264.9733 0216245 268.7142  88.9180 12.79708626 39577
ORBITAL FACTORY 2 (OF-2)
1 45113U 19071C   20305.61210241  .00004220  00000-0  13771-3 0  9999
2 45113  51.6438  65.5668 0012835 186.0651 174.0177 15.33927728 42027
HUSKYSAT-1              
1 45119U 19071J   20305.57283884  .00002482  00000-0  85324-4 0  9995
2 45119  51.6429  65.3046 0012121 181.8642 178.2297 15.34097968 42015
SALSAT                  
1 46495U 20068K   20305.36332403  .00001274  00000-0  98366-4 0  9998
2 46495  97.6694 238.5437 0017743 125.1753 235.1136 15.03242087  4916
